COSMOS 1408 DEB         
1 49527U 82092Q   25107.91934693  .00303724  00000+0  52032-2 0  9999
2 49527  82.3415  77.2166 0117351 140.4205 220.5685 15.42896300180482
COSMOS 1408 DEB         
1 49537U 82092AA  25107.78156747  .00070190  00000+0  12785-2 0  9990
2 49537  82.5424 347.7218 0071701  61.7826 299.0638 15.46331190188460
COSMOS 1408 DEB         
1 50032U 82092RU  25107.99659490  .00006744  00000+0  15136-3 0  9996
2 50032  82.5621 302.6347 0016765   4.6629 355.4771 15.43015691189198
COSMOS 1408 DEB         
1 50058U 82092SW  25107.98585437  .00023032  00000+0  37985-3 0  9997
2 50058  82.6106 316.6017 0020217 259.7299 100.1674 15.51905587190894
COSMOS 1408 DEB         
1 50404U 82092ADS 25108.00407447  .00053199  00000+0  34574-2 0  9997
2 50404  82.2218  91.6514 0275656 273.7036  83.2698 14.81570875176302
COSMOS 1408 DEB         
1 50621U 82092ALR 25107.63579035  .00019197  00000+0  38264-3 0  9990
2 50621  82.5726 320.7477 0034838 309.0405  50.7744 15.46057943185446
COSMOS 1408 DEB         
1 51184U 82092AZJ 25107.88039486  .00266202  26788-4  61255-3 0  9996
2 51184  82.4718 275.9422 0006504 191.5898 168.5230 15.97186559184169
